STARLINK-2022           
1 47643U 21012Z   24259.48957119  .00010724  00000+0  73813-3 0  9994
2 47643  53.0546 316.6734 0001395  87.7083 272.4065 15.06381052198847
